[{"OBJECT_NAME":"STARLINK-30870","OBJECT_ID":"2023-177U","EPOCH":"2025-11-02T10:29:50.222976","MEAN_MOTION":15.02534406,"ECCENTRICITY":0.0001149,"INCLINATION":43.0038,"RA_OF_ASC_NODE":323.0483,"ARG_OF_PERICENTER":273.8054,"MEAN_ANOMALY":86.2656,"EPHEMERIS_TYPE":0,"CLASSIFICATION_TYPE":"U","NORAD_CAT_ID":58369,"ELEMENT_SET_NO":999,"REV_AT_EPOCH":10907,"BSTAR":0.00020836,"MEAN_MOTION_DOT":2.612e-5,"MEAN_MOTION_DDOT":0},{"OBJECT_NAME":"STARLINK-30888","OBJECT_ID":"2023-177V","EPOCH":"2025-11-03T17:43:00.442848","MEAN_MOTION":15.02549246,"ECCENTRICITY":0.0001524,"INCLINATION":43.0028,"RA_OF_ASC_NODE":316.4549,"ARG_OF_PERICENTER":254.6044,"MEAN_ANOMALY":105.463,"EPHEMERIS_TYPE":0,"CLASSIFICATION_TYPE":"U","NORAD_CAT_ID":58370,"ELEMENT_SET_NO":999,"REV_AT_EPOCH":10927,"BSTAR":0.00032911,"MEAN_MOTION_DOT":4.246e-5,"MEAN_MOTION_DDOT":0},{"OBJECT_NAME":"STARLINK-30859","OBJECT_ID":"2023-177W","EPOCH":"2025-11-03T17:28:37.008768","MEAN_MOTION":15.02539057,"ECCENTRICITY":0.0001603,"INCLINATION":43.0046,"RA_OF_ASC_NODE":316.3608,"ARG_OF_PERICENTER":277.8219,"MEAN_ANOMALY":82.2442,"EPHEMERIS_TYPE":0,"CLASSIFICATION_TYPE":"U","NORAD_CAT_ID":58371,"ELEMENT_SET_NO":999,"REV_AT_EPOCH":10927,"BSTAR":0.00011258,"MEAN_MOTION_DOT":1.317e-5,"MEAN_MOTION_DDOT":0},{"OBJECT_NAME":"STARLINK-30884","OBJECT_ID":"2023-177X","EPOCH":"2025-11-01T08:50:12.033312","MEAN_MOTION":15.02528294,"ECCENTRICITY":9.902e-5,"INCLINATION":43.0029,"RA_OF_ASC_NODE":328.7849,"ARG_OF_PERICENTER":272.8645,"MEAN_ANOMALY":87.2084,"EPHEMERIS_TYPE":0,"CLASSIFICATION_TYPE":"U","NORAD_CAT_ID":58372,"ELEMENT_SET_NO":999,"REV_AT_EPOCH":10891,"BSTAR":4.977072e-5,"MEAN_MOTION_DOT":4.69e-6,"MEAN_MOTION_DDOT":0},{"OBJECT_NAME":"STARLINK-30852","OBJECT_ID":"2023-177Y","EPOCH":"2025-11-03T12:33:26.335008","MEAN_MOTION":15.02544191,"ECCENTRICITY":0.0001149,"INCLINATION":43.005,"RA_OF_ASC_NODE":317.4032,"ARG_OF_PERICENTER":275.0444,"MEAN_ANOMALY":85.0267,"EPHEMERIS_TYPE":0,"CLASSIFICATION_TYPE":"U","NORAD_CAT_ID":58373,"ELEMENT_SET_NO":999,"REV_AT_EPOCH":10923,"BSTAR":0.00012595,"MEAN_MOTION_DOT":1.499e-5,"MEAN_MOTION_DDOT":0},{"OBJECT_NAME":"STARLINK-30911","OBJECT_ID":"2023-178A","EPOCH":"2025-11-02T01:32:00.292128","MEAN_MOTION":15.30184714,"ECCENTRICITY":0.00013168,"INCLINATION":53.1595,"RA_OF_ASC_NODE":233.7171,"ARG_OF_PERICENTER":96.3133,"MEAN_ANOMALY":263.8018,"EPHEMERIS_TYPE":0,"CLASSIFICATION_TYPE":"U","NORAD_CAT_ID":58374,"ELEMENT_SET_NO":999,"REV_AT_EPOCH":11034,"BSTAR":2.4018613e-5,"MEAN_MOTION_DOT":3.52e-6,"MEAN_MOTION_DDOT":0},{"OBJECT_NAME":"STARLINK-30894","OBJECT_ID":"2023-178B","EPOCH":"2025-11-03T12:16:22.703232","MEAN_MOTION":15.30178644,"ECCENTRICITY":0.0001644,"INCLINATION":53.1606,"RA_OF_ASC_NODE":227.11,"ARG_OF_PERICENTER":106.8501,"MEAN_ANOMALY":253.268,"EPHEMERIS_TYPE":0,"CLASSIFICATION_TYPE":"U","NORAD_CAT_ID":58375,"ELEMENT_SET_NO":999,"REV_AT_EPOCH":11050,"BSTAR":6.9348e-5,"MEAN_MOTION_DOT":1.694e-5,"MEAN_MOTION_DDOT":0},{"OBJECT_NAME":"STARLINK-30910","OBJECT_ID":"2023-178C","EPOCH":"2025-11-03T18:37:09.627168","MEAN_MOTION":15.30153162,"ECCENTRICITY":0.0001689,"INCLINATION":53.1599,"RA_OF_ASC_NODE":225.9201,"ARG_OF_PERICENTER":104.0484,"MEAN_ANOMALY":256.0705,"EPHEMERIS_TYPE":0,"CLASSIFICATION_TYPE":"U","NORAD_CAT_ID":58376,"ELEMENT_SET_NO":999,"REV_AT_EPOCH":11061,"BSTAR":0.0006655,"MEAN_MOTION_DOT":0.00019374,"MEAN_MOTION_DDOT":0},{"OBJECT_NAME":"STARLINK-30914","OBJECT_ID":"2023-178D","EPOCH":"2025-11-02T01:35:02.116608","MEAN_MOTION":15.30183982,"ECCENTRICITY":0.0001195,"INCLINATION":53.1605,"RA_OF_ASC_NODE":233.7208,"ARG_OF_PERICENTER":99.9399,"MEAN_ANOMALY":260.1736,"EPHEMERIS_TYPE":0,"CLASSIFICATION_TYPE":"U","NORAD_CAT_ID":58377,"ELEMENT_SET_NO":999,"REV_AT_EPOCH":11035,"BSTAR":7.5315957e-5,"MEAN_MOTION_DOT":1.871e-5,"MEAN_MOTION_DDOT":0},{"OBJECT_NAME":"STARLINK-30920","OBJECT_ID":"2023-178E","EPOCH":"2025-11-02T11:42:39.498624","MEAN_MOTION":15.30165053,"ECCENTRICITY":0.000187,"INCLINATION":53.161,"RA_OF_ASC_NODE":219.3461,"ARG_OF_PERICENTER":105.8382,"MEAN_ANOMALY":254.2825,"EPHEMERIS_TYPE":0,"CLASSIFICATION_TYPE":"U","NORAD_CAT_ID":58378,"ELEMENT_SET_NO":999,"REV_AT_EPOCH":11059,"BSTAR":-3.2167e-5,"MEAN_MOTION_DOT":-1.311e-5,"MEAN_MOTION_DDOT":0},{"OBJECT_NAME":"STARLINK-30882","OBJECT_ID":"2023-178F","EPOCH":"2025-11-02T01:56:19.049856","MEAN_MOTION":15.30197912,"ECCENTRICITY":0.00013675,"INCLINATION":53.1601,"RA_OF_ASC_NODE":233.8234,"ARG_OF_PERICENTER":85.1572,"MEAN_ANOMALY":274.9584,"EPHEMERIS_TYPE":0,"CLASSIFICATION_TYPE":"U","NORAD_CAT_ID":58379,"ELEMENT_SET_NO":999,"REV_AT_EPOCH":11035,"BSTAR":0.00022751505,"MEAN_MOTION_DOT":6.385e-5,"MEAN_MOTION_DDOT":0},{"OBJECT_NAME":"STARLINK-30915","OBJECT_ID":"2023-178G","EPOCH":"2025-11-03T19:27:38.419776","MEAN_MOTION":15.30196892,"ECCENTRICITY":0.0001358,"INCLINATION":53.158,"RA_OF_ASC_NODE":136.0298,"ARG_OF_PERICENTER":82.3018,"MEAN_ANOMALY":277.8137,"EPHEMERIS_TYPE":0,"CLASSIFICATION_TYPE":"U","NORAD_CAT_ID":58380,"ELEMENT_SET_NO":999,"REV_AT_EPOCH":11184,"BSTAR":2.3337e-5,"MEAN_MOTION_DOT":3.32e-6,"MEAN_MOTION_DDOT":0},{"OBJECT_NAME":"STARLINK-30923","OBJECT_ID":"2023-178H","EPOCH":"2025-11-02T02:09:58.679136","MEAN_MOTION":15.30188803,"ECCENTRICITY":9.699e-5,"INCLINATION":53.1611,"RA_OF_ASC_NODE":233.8419,"ARG_OF_PERICENTER":82.5613,"MEAN_ANOMALY":277.5498,"EPHEMERIS_TYPE":0,"CLASSIFICATION_TYPE":"U","NORAD_CAT_ID":58381,"ELEMENT_SET_NO":999,"REV_AT_EPOCH":11028,"BSTAR":8.31822e-5,"MEAN_MOTION_DOT":2.105e-5,"MEAN_MOTION_DDOT":0},{"OBJECT_NAME":"STARLINK-30927","OBJECT_ID":"2023-178J","EPOCH":"2025-11-03T19:15:07.552800","MEAN_MOTION":15.30196011,"ECCENTRICITY":0.0001424,"INCLINATION":53.1611,"RA_OF_ASC_NODE":226.0783,"ARG_OF_PERICENTER":71.777,"MEAN_ANOMALY":288.3385,"EPHEMERIS_TYPE":0,"CLASSIFICATION_TYPE":"U","NORAD_CAT_ID":58382,"ELEMENT_SET_NO":999,"REV_AT_EPOCH":11059,"BSTAR":4.12e-5,"MEAN_MOTION_DOT":8.61e-6,"MEAN_MOTION_DDOT":0},{"OBJECT_NAME":"STARLINK-30921","OBJECT_ID":"2023-178K","EPOCH":"2025-11-02T00:31:20.678304","MEAN_MOTION":15.30244654,"ECCENTRICITY":0.00010844,"INCLINATION":53.1613,"RA_OF_ASC_NODE":234.1686,"ARG_OF_PERICENTER":76.0331,"MEAN_ANOMALY":284.0791,"EPHEMERIS_TYPE":0,"CLASSIFICATION_TYPE":"U","NORAD_CAT_ID":58383,"ELEMENT_SET_NO":999,"REV_AT_EPOCH":11032,"BSTAR":-0.00033604092,"MEAN_MOTION_DOT":-0.00010312,"MEAN_MOTION_DDOT":0},{"OBJECT_NAME":"STARLINK-30825","OBJECT_ID":"2023-178L","EPOCH":"2025-11-02T01:42:37.932768","MEAN_MOTION":15.30181884,"ECCENTRICITY":0.00015612,"INCLINATION":53.1604,"RA_OF_ASC_NODE":233.7374,"ARG_OF_PERICENTER":93.0323,"MEAN_ANOMALY":267.0856,"EPHEMERIS_TYPE":0,"CLASSIFICATION_TYPE":"U","NORAD_CAT_ID":58384,"ELEMENT_SET_NO":999,"REV_AT_EPOCH":11035,"BSTAR":0.00011053891,"MEAN_MOTION_DOT":2.914e-5,"MEAN_MOTION_DDOT":0},{"OBJECT_NAME":"STARLINK-30930","OBJECT_ID":"2023-178M","EPOCH":"2025-11-02T03:01:29.926848","MEAN_MOTION":15.30184986,"ECCENTRICITY":0.00015396,"INCLINATION":53.1592,"RA_OF_ASC_NODE":233.3902,"ARG_OF_PERICENTER":80.3499,"MEAN_ANOMALY":279.7675,"EPHEMERIS_TYPE":0,"CLASSIFICATION_TYPE":"U","NORAD_CAT_ID":58385,"ELEMENT_SET_NO":999,"REV_AT_EPOCH":11023,"BSTAR":7.7544988e-5,"MEAN_MOTION_DOT":1.937e-5,"MEAN_MOTION_DDOT":0},{"OBJECT_NAME":"STARLINK-30929","OBJECT_ID":"2023-178N","EPOCH":"2025-11-02T02:57:03.724992","MEAN_MOTION":15.30182984,"ECCENTRICITY":0.00016678,"INCLINATION":53.1596,"RA_OF_ASC_NODE":233.8848,"ARG_OF_PERICENTER":69.464,"MEAN_ANOMALY":290.654,"EPHEMERIS_TYPE":0,"CLASSIFICATION_TYPE":"U","NORAD_CAT_ID":58386,"ELEMENT_SET_NO":999,"REV_AT_EPOCH":11033,"BSTAR":4.2804052e-5,"MEAN_MOTION_DOT":9.08e-6,"MEAN_MOTION_DDOT":0},{"OBJECT_NAME":"STARLINK-30898","OBJECT_ID":"2023-178P","EPOCH":"2025-11-03T17:54:43.678368","MEAN_MOTION":15.3019297,"ECCENTRICITY":0.0001214,"INCLINATION":53.1605,"RA_OF_ASC_NODE":226.3131,"ARG_OF_PERICENTER":85.7287,"MEAN_ANOMALY":274.3853,"EPHEMERIS_TYPE":0,"CLASSIFICATION_TYPE":"U","NORAD_CAT_ID":58387,"ELEMENT_SET_NO":999,"REV_AT_EPOCH":11060,"BSTAR":-3.8896e-6,"MEAN_MOTION_DOT":-4.74e-6,"MEAN_MOTION_DDOT":0},{"OBJECT_NAME":"STARLINK-30913","OBJECT_ID":"2023-178Q","EPOCH":"2025-11-02T02:23:39.800544","MEAN_MOTION":15.30191802,"ECCENTRICITY":0.0001201,"INCLINATION":53.1609,"RA_OF_ASC_NODE":233.9437,"ARG_OF_PERICENTER":106.7644,"MEAN_ANOMALY":253.3488,"EPHEMERIS_TYPE":0,"CLASSIFICATION_TYPE":"U","NORAD_CAT_ID":58388,"ELEMENT_SET_NO":999,"REV_AT_EPOCH":11035,"BSTAR":6.775711e-5,"MEAN_MOTION_DOT":1.648e-5,"MEAN_MOTION_DDOT":0},{"OBJECT_NAME":"STARLINK-30938","OBJECT_ID":"2023-178R","EPOCH":"2025-11-02T02:26:40.232256","MEAN_MOTION":15.30213701,"ECCENTRICITY":7.627e-5,"INCLINATION":53.1599,"RA_OF_ASC_NODE":233.9547,"ARG_OF_PERICENTER":109.8448,"MEAN_ANOMALY":250.2635,"EPHEMERIS_TYPE":0,"CLASSIFICATION_TYPE":"U","NORAD_CAT_ID":58389,"ELEMENT_SET_NO":999,"REV_AT_EPOCH":11035,"BSTAR":0.00017280597,"MEAN_MOTION_DOT":4.765e-5,"MEAN_MOTION_DDOT":0},{"OBJECT_NAME":"STARLINK-30868","OBJECT_ID":"2023-178S","EPOCH":"2025-11-03T18:59:56.245344","MEAN_MOTION":15.30191189,"ECCENTRICITY":0.0001485,"INCLINATION":53.1616,"RA_OF_ASC_NODE":226.0186,"ARG_OF_PERICENTER":83.7029,"MEAN_ANOMALY":276.4141,"EPHEMERIS_TYPE":0,"CLASSIFICATION_TYPE":"U","NORAD_CAT_ID":58390,"ELEMENT_SET_NO":999,"REV_AT_EPOCH":11061,"BSTAR":1.6082e-5,"MEAN_MOTION_DOT":1.17e-6,"MEAN_MOTION_DDOT":0},{"OBJECT_NAME":"STARLINK-30916","OBJECT_ID":"2023-178T","EPOCH":"2025-11-03T17:45:37.010016","MEAN_MOTION":15.30188131,"ECCENTRICITY":0.0001244,"INCLINATION":53.1607,"RA_OF_ASC_NODE":226.3017,"ARG_OF_PERICENTER":89.7209,"MEAN_ANOMALY":270.3934,"EPHEMERIS_TYPE":0,"CLASSIFICATION_TYPE":"U","NORAD_CAT_ID":58391,"ELEMENT_SET_NO":999,"REV_AT_EPOCH":11060,"BSTAR":1.609e-5,"MEAN_MOTION_DOT":1.17e-6,"MEAN_MOTION_DDOT":0}]
